SEEDS II (CO-66)        
1 32791U 08021J   26068.92109284  .00023758  00000+0  84213-3 0  9995
2 32791  97.7519  62.3611 0001448 359.2618   0.8619 15.29097235972108
STARLINK-32533          
1 61706U 24195V   26068.53767853 -.00000734  00000+0 -12656-4 0  9996
2 61706  53.1609 155.6757 0000976  77.7139 282.3971 15.30193459 77161
